{
    "links": {
        "self": "http://www.neowsapp.com/rest/v1/neo/3619274?api_key=iIulBulltgU6a56xZRHN4H3l9WmuAYTsLGpBGhQ2"
    },
    "id": "3619274",
    "neo_reference_id": "3619274",
    "name": "(2012 XH)",
    "designation": "2012 XH",
    "nasa_jpl_url": "http://ssd.jpl.nasa.gov/sbdb.cgi?sstr=3619274",
    "absolute_magnitude_h": 26.2,
    "estimated_diameter": {
        "kilometers": {
            "estimated_diameter_min": 0.0152951935,
            "estimated_diameter_max": 0.0342010925
        },
        "meters": {
            "estimated_diameter_min": 15.2951935344,
            "estimated_diameter_max": 34.201092472
        },
        "miles": {
            "estimated_diameter_min": 0.0095039897,
            "estimated_diameter_max": 0.021251567
        },
        "feet": {
            "estimated_diameter_min": 50.1810827555,
            "estimated_diameter_max": 112.2083122258
        }
    },
    "is_potentially_hazardous_asteroid": false,
    "close_approach_data": [
        {
            "close_approach_date": "2012-11-21",
            "close_approach_date_full": "2012-Nov-21 05:27",
            "epoch_date_close_approach": 1353475620000,
            "relative_velocity": {
                "kilometers_per_second": "7.0613707623",
                "kilometers_per_hour": "25420.934744215",
                "miles_per_hour": "15795.5802581485"
            },
            "miss_distance": {
                "astronomical": "0.0245885987",
                "lunar": "9.5649648943",
                "kilometers": "3678401.991804769",
                "miles": "2285653.0105690522"
            },
            "orbiting_body": "Earth"
        },
        {
            "close_approach_date": "2027-08-26",
            "close_approach_date_full": "2027-Aug-26 17:13",
            "epoch_date_close_approach": 1819300380000,
            "relative_velocity": {
                "kilometers_per_second": "16.6127239504",
                "kilometers_per_hour": "59805.8062213626",
                "miles_per_hour": "37161.0022046017"
            },
            "miss_distance": {
                "astronomical": "0.3310067752",
                "lunar": "128.7616355528",
                "kilometers": "49517908.525488824",
                "miles": "30769001.5801768112"
            },
            "orbiting_body": "Earth"
        }
    ],
    "orbital_data": {
        "orbit_id": "13",
        "orbit_determination_date": "2017-04-06 08:47:50",
        "first_observation_date": "2012-12-03",
        "last_observation_date": "2013-01-06",
        "data_arc_in_days": 34,
        "observations_used": 43,
        "orbit_uncertainty": "7",
        "minimum_orbit_intersection": ".00261347",
        "jupiter_tisserand_invariant": "4.171",
        "epoch_osculation": "2459000.5",
        "eccentricity": ".4096078157644339",
        "semi_major_axis": "1.655921682577722",
        "inclination": ".7063465573385068",
        "ascending_node_longitude": "62.45300210020091",
        "orbital_period": "778.319866865598",
        "perihelion_distance": ".9776432191000952",
        "perihelion_argument": "331.0076975304019",
        "aphelion_distance": "2.33420014605535",
        "perihelion_time": "2459345.653243246262",
        "mean_anomaly": "200.354624289565",
        "mean_motion": ".4625347692199737",
        "equinox": "J2000",
        "orbit_class": {
            "orbit_class_type": "APO",
            "orbit_class_description": "Near-Earth asteroid orbits which cross the Earth’s orbit similar to that of 1862 Apollo",
            "orbit_class_range": "a (semi-major axis) > 1.0 AU; q (perihelion) < 1.017 AU"
        }
    },
    "is_sentry_object": false
}